COMMENT,ORIGINATOR,NORAD_CAT_ID,OBJECT_NAME,OBJECT_TYPE,CLASSIFICATION_TYPE,INTLDES,EPOCH,EPOCH_MICROSECONDS,MEAN_MOTION,ECCENTRICITY,INCLINATION,RA_OF_ASC_NODE,ARG_OF_PERICENTER,MEAN_ANOMALY,EPHEMERIS_TYPE,ELEMENT_SET_NO,REV_AT_EPOCH,BSTAR,MEAN_MOTION_DOT,MEAN_MOTION_DDOT,FILE,TLE_LINE0,TLE_LINE1,TLE_LINE2,OBJECT_ID,OBJECT_NUMBER,SEMIMAJOR_AXIS,PERIOD,APOGEE,PERIGEE,DECAYED,date
GENERATED VIA SPACETRACK.ORG API,18 SPCS,46300,SPACEBEE-21,PAYLOAD,U,20061AE,2023/1/24 4:22,555616,15.31993755,0.000048,97.4253,99.4874,48.9375,311.1908,0,999,13214,0.0025893,0.00080669,0,3759875,0 SPACEBEE-21,1 46300U 20061AE  23024.18207819  .00080669  00000-0  25893-2 0  9997,2 46300  97.4253  99.4874 0000480  48.9375 311.1908 15.31993755132146,2020-061AE,46300,6848.001,93.995,470.195,469.538,1,2023/2/16
GENERATED VIA SPACETRACK.ORG API,18 SPCS,46300,SPACEBEE-21,PAYLOAD,U,20061AE,2023/1/24 16:54,377792,15.32063151,0.0000522,97.425,100.0116,34.7209,325.4066,0,999,13222,0.0022546,0.00070287,0,3760193,0 SPACEBEE-21,1 46300U 20061AE  23024.70459928  .00070287  00000-0  22546-2 0  9992,2 46300  97.4250 100.0116 0000522  34.7209 325.4066 15.32063151132228,2020-061AE,46300,6847.795,93.991,470.017,469.302,1,2023/2/17
GENERATED VIA SPACETRACK.ORG API,18 SPCS,46300,SPACEBEE-21,PAYLOAD,U,20061AE,2023/1/25 3:52,252512,15.32127729,0.0000396,97.4248,100.4695,40.4937,319.6334,0,999,13229,0.002475,0.00077394,0,3761297,0 SPACEBEE-21,1 46300U 20061AE  23025.16178533  .00077394  00000-0  24750-2 0  9998,2 46300  97.4248 100.4695 0000396  40.4937 319.6334 15.32127729132294,2020-061AE,46300,6847.602,93.987,469.738,469.196,1,2023/2/18
GENERATED VIA SPACETRACK.ORG API,18 SPCS,46300,SPACEBEE-21,PAYLOAD,U,20061AE,2023/1/25 16:25,250624,15.32190463,0.0000496,97.4248,100.9938,34.7,325.4274,0,999,13237,0.0021679,0.00067827,0,3761360,0 SPACEBEE-21,1 46300U 20061AE  23025.68426216  .00067827  00000-0  21679-2 0  9996,2 46300  97.4248 100.9938 0000496  34.7000 325.4274 15.32190463132379,2020-061AE,46300,6847.415,93.983,469.62,468.941,1,2023/2/19
GENERATED VIA SPACETRACK.ORG API,18 SPCS,46300,SPACEBEE-21,PAYLOAD,U,20061AE,2023/1/26 3:23,582944,15.32267747,0.0000433,97.425,101.4517,38.8375,321.2898,0,999,13244,0.0024562,0.00077139,0,3761704,0 SPACEBEE-21,1 46300U 20061AE  23026.14140721  .00077139  00000-0  24562-2 0  9993,2 46300  97.4250 101.4517 0000433  38.8375 321.2898 15.32267747132446,2020-061AE,46300,6847.185,93.978,469.347,468.754,1,2023/2/20
GENERATED VIA SPACETRACK.ORG API,18 SPCS,46300,SPACEBEE-21,PAYLOAD,U,20061AE,2023/1/26 3:23,582944,15.32267747,0.0000433,97.425,101.4517,38.8375,321.2898,0,999,13244,0.0024562,0.00077139,0,3761951,0 SPACEBEE-21,1 46300U 20061AE  23026.14140721  .00077139  00000-0  24562-2 0  9993,2 46300  97.4250 101.4517 0000433  38.8375 321.2898 15.32267747132446,2020-061AE,46300,6847.185,93.978,469.347,468.754,1,2023/2/21
GENERATED VIA SPACETRACK.ORG API,18 SPCS,46300,SPACEBEE-21,PAYLOAD,U,20061AE,2023/1/26 22:12,537216,15.32371892,0.0000466,97.4243,102.237,12.3239,347.8014,0,999,13256,0.0022304,0.00070203,0,3762306,0 SPACEBEE-21,1 46300U 20061AE  23026.92504094  .00070203  00000-0  22304-2 0  9993,2 46300  97.4243 102.2370 0000466  12.3239 347.8014 15.32371892132560,2020-061AE,46300,6846.875,93.972,469.059,468.421,1,2023/2/22
GENERATED VIA SPACETRACK.ORG API,18 SPCS,46300,SPACEBEE-21,PAYLOAD,U,20061AE,2023/1/27 4:28,191296,15.32407651,0.0000459,97.4244,102.4988,15.8434,344.2822,0,999,13260,0.0021778,0.00068608,0,3762956,0 SPACEBEE-21,1 46300U 20061AE  23027.18624064  .00068608  00000-0  21778-2 0  9992,2 46300  97.4244 102.4988 0000459  15.8434 344.2822 15.32407651132601,2020-061AE,46300,6846.768,93.97,468.948,468.319,1,2023/2/23
GENERATED VIA SPACETRACK.ORG API,18 SPCS,46300,SPACEBEE-21,PAYLOAD,U,20061AE,2023/1/27 17:00,897600,15.32472307,0.0000499,97.4242,103.0232,4.7492,355.3754,0,999,13268,0.0020556,0.00064852,0,3763218,0 SPACEBEE-21,1 46300U 20061AE  23027.70862150  .00064852  00000-0  20556-2 0  9990,2 46300  97.4242 103.0232 0000499   4.7492 355.3754 15.32472307132688,2020-061AE,46300,6846.576,93.966,468.782,468.099,1,2023/2/24
GENERATED VIA SPACETRACK.ORG API,18 SPCS,46300,SPACEBEE-21,PAYLOAD,U,20061AE,2023/1/28 3:58,364576,15.3252883,0.0000503,97.4243,103.4814,1.9993,358.1251,0,999,13275,0.0019932,0.00062977,0,3763542,0 SPACEBEE-21,1 46300U 20061AE  23028.16568709  .00062977  00000-0  19932-2 0  9996,2 46300  97.4243 103.4814 0000503   1.9993 358.1251 15.32528830132754,2020-061AE,46300,6846.407,93.962,468.617,467.928,1,2023/2/25
GENERATED VIA SPACETRACK.ORG API,18 SPCS,46300,SPACEBEE-21,PAYLOAD,U,20061AE,2023/1/28 3:58,364576,15.3252883,0.0000503,97.4243,103.4814,1.9993,358.1251,0,999,13275,0.0019932,0.00062977,0,3763924,0 SPACEBEE-21,1 46300U 20061AE  23028.16568709  .00062977  00000-0  19932-2 0  9996,2 46300  97.4243 103.4814 0000503   1.9993 358.1251 15.32528830132754,2020-061AE,46300,6846.407,93.962,468.617,467.928,1,2023/2/26
GENERATED VIA SPACETRACK.ORG API,18 SPCS,46300,SPACEBEE-21,PAYLOAD,U,20061AE,2023/1/28 18:04,725312,15.32596266,0.0000577,97.4244,104.0713,0.6723,359.452,0,999,13284,0.0017043,0.00053886,0,3764201,0 SPACEBEE-21,1 46300U 20061AE  23028.75331858  .00053886  00000-0  17043-2 0  9994,2 46300  97.4244 104.0713 0000577   0.6723 359.4520 15.32596266132849,2020-061AE,46300,6846.207,93.958,468.467,467.677,1,2023/2/27
GENERATED VIA SPACETRACK.ORG API,18 SPCS,46300,SPACEBEE-21,PAYLOAD,U,20061AE,2023/1/29 3:28,55264,15.3263925,0.0000484,97.425,104.4638,1.343,358.7813,0,999,13290,0.0015988,0.00050591,0,3764488,0 SPACEBEE-21,1 46300U 20061AE  23029.14505851  .00050591  00000-0  15988-2 0  9990,2 46300  97.4250 104.4638 0000484   1.3430 358.7813 15.32639250132901,2020-061AE,46300,6846.079,93.956,468.275,467.612,1,2023/2/28
GENERATED VIA SPACETRACK.ORG API,18 SPCS,46300,SPACEBEE-21,PAYLOAD,U,20061AE,2023/1/29 22:17,946912,15.32719639,0.0000488,97.4245,105.2507,2.5105,357.6139,0,999,13302,0.0015379,0.00048772,0,3765015,0 SPACEBEE-21,1 46300U 20061AE  23029.92850633  .00048772  00000-0  15379-2 0  9999,2 46300  97.4245 105.2507 0000488   2.5105 357.6139 15.32719639133028,2020-061AE,46300,6845.839,93.951,468.038,467.37,1,2023/3/1
GENERATED VIA SPACETRACK.ORG API,18 SPCS,46300,SPACEBEE-21,PAYLOAD,U,20061AE,2023/1/30 4:33,536224,15.32744791,0.0000446,97.4244,105.5128,6.7582,353.3665,0,999,13306,0.0013817,0.00043816,0,3765350,0 SPACEBEE-21,1 46300U 20061AE  23030.18964741  .00043816  00000-0  13817-2 0  9994,2 46300  97.4244 105.5128 0000446   6.7582 353.3665 15.32744791133066,2020-061AE,46300,6845.764,93.949,467.935,467.324,1,2023/3/2
GENERATED VIA SPACETRACK.ORG API,18 SPCS,46300,SPACEBEE-21,PAYLOAD,U,20061AE,2023/1/30 4:33,536224,15.32744791,0.0000446,97.4244,105.5128,6.7582,353.3665,0,999,13306,0.0013817,0.00043816,0,3765576,0 SPACEBEE-21,1 46300U 20061AE  23030.18964741  .00043816  00000-0  13817-2 0  9994,2 46300  97.4244 105.5128 0000446   6.7582 353.3665 15.32744791133066,2020-061AE,46300,6845.764,93.949,467.935,467.324,1,2023/3/3
GENERATED VIA SPACETRACK.ORG API,18 SPCS,46300,SPACEBEE-21,PAYLOAD,U,20061AE,2023/1/31 2:29,635296,15.32830693,0.0000445,97.4243,106.4299,355.9302,4.1936,0,999,13320,0.0016104,0.0005127,0,3766475,0 SPACEBEE-21,1 46300U 20061AE  23031.10360689  .00051270  00000-0  16104-2 0  9993,2 46300  97.4243 106.4299 0000445 355.9302   4.1936 15.32830693133207,2020-061AE,46300,6845.509,93.944,467.678,467.069,1,2023/3/4
GENERATED VIA SPACETRACK.ORG API,18 SPCS,46300,SPACEBEE-21,PAYLOAD,U,20061AE,2023/1/31 2:29,635296,15.32830693,0.0000445,97.4243,106.4299,355.9302,4.1936,0,999,13320,0.0016104,0.0005127,0,3766735,0 SPACEBEE-21,1 46300U 20061AE  23031.10360689  .00051270  00000-0  16104-2 0  9993,2 46300  97.4243 106.4299 0000445 355.9302   4.1936 15.32830693133207,2020-061AE,46300,6845.509,93.944,467.678,467.069,1,2023/3/5
GENERATED VIA SPACETRACK.ORG API,18 SPCS,46300,SPACEBEE-21,PAYLOAD,U,20061AE,2023/2/1 3:33,784032,15.32942923,0.0000444,97.4245,107.4787,347.8669,12.2563,0,999,13336,0.0017179,0.00054917,0,3767130,0 SPACEBEE-21,1 46300U 20061AE  23032.14806463  .00054917  00000-0  17179-2 0  9997,2 46300  97.4245 107.4787 0000444 347.8669  12.2563 15.32942923133360,2020-061AE,46300,6845.174,93.937,467.343,466.735,1,2023/3/6
GENERATED VIA SPACETRACK.ORG API,18 SPCS,46300,SPACEBEE-21,PAYLOAD,U,20061AE,2023/2/1 3:33,784032,15.32942923,0.0000444,97.4245,107.4787,347.8669,12.2563,0,999,13336,0.0017179,0.00054917,0,3767525,0 SPACEBEE-21,1 46300U 20061AE  23032.14806463  .00054917  00000-0  17179-2 0  9997,2 46300  97.4245 107.4787 0000444 347.8669  12.2563 15.32942923133360,2020-061AE,46300,6845.174,93.937,467.343,466.735,1,2023/3/7
GENERATED VIA SPACETRACK.ORG API,18 SPCS,46300,SPACEBEE-21,PAYLOAD,U,20061AE,2023/2/2 4:37,104576,15.33064701,0.0000317,97.4245,108.527,349.1093,11.0142,0,999,13352,0.0020118,0.00064655,0,3768366,0 SPACEBEE-21,1 46300U 20061AE  23033.19244334  .00064655  00000-0  20118-2 0  9993,2 46300  97.4245 108.5270 0000317 349.1093  11.0142 15.33064701133522,2020-061AE,46300,6844.812,93.929,466.894,466.46,1,2023/3/8
GENERATED VIA SPACETRACK.ORG API,18 SPCS,46300,SPACEBEE-21,PAYLOAD,U,20061AE,2023/2/2 15:35,461056,15.33108314,0.0000465,97.4247,108.9864,346.7644,13.3586,0,999,13359,0.0015213,0.00048836,0,3769114,0 SPACEBEE-21,1 46300U 20061AE  23033.64933404  .00048836  00000-0  15213-2 0  9999,2 46300  97.4247 108.9864 0000465 346.7644  13.3586 15.33108314133599,2020-061AE,46300,6844.682,93.927,466.865,466.229,1,2023/3/9
GENERATED VIA SPACETRACK.ORG API,18 SPCS,46300,SPACEBEE-21,PAYLOAD,U,20061AE,2023/2/3 4:06,592928,15.3316754,0.0000404,97.4248,109.5103,337.1982,22.9242,0,999,13367,0.0016399,0.00052775,0,3770323,0 SPACEBEE-21,1 46300U 20061AE  23034.17147677  .00052775  00000-0  16399-2 0  9990,2 46300  97.4248 109.5103 0000404 337.1982  22.9242 15.33167540133675,2020-061AE,46300,6844.506,93.923,466.647,466.094,1,2023/3/10
